NORAD_CAT_ID,OBJECT_NAME,OBJECT_TYPE,EPOCH,MEAN_MOTION,ECCENTRICITY,INCLINATION,RA_OF_ASC_NODE,ARG_OF_PERICENTER,MEAN_ANOMALY,BSTAR,MEAN_MOTION_DOT,MEAN_MOTION_DDOT,TLE_LINE0,TLE_LINE1,TLE_LINE2,SEMIMAJOR_AXIS,PERIOD,APOGEE,PERIGEE,DECAYED
55668.0,STARLINK-5455,PAYLOAD,2023-03-30 22:45:44,15.69926525,0.0003422,70.0013,34.1504,263.8428,96.2378,3.4873e-06,2.07e-06,0.0,0 STARLINK-5455,1 55668U 23021AS  23089.94843516  .00000207  00000-0  34873-5 0  9999,2 55668  70.0013  34.1504 0003422 263.8428  96.2378 15.69926525  7006,6737.244,91.724,361.415,356.804,0.0
55668.0,STARLINK-5455,PAYLOAD,2023-04-01 05:20:47,15.69922907,0.0003343,70.0014,30.5687,265.2934,94.788,8.7189e-06,8.36e-06,0.0,0 STARLINK-5455,1 55668U 23021AS  23091.22277200  .00000836  00000-0  87189-5 0  9990,2 55668  70.0014  30.5687 0003343 265.2934  94.7880 15.69922907  7202,6737.255,91.724,361.372,356.867,0.0
55668.0,STARLINK-5455,PAYLOAD,2023-04-01 20:38:18,15.69921828,0.000332,70.0015,28.7772,268.2062,91.8753,-8.4695e-07,-3.14e-06,0.0,0 STARLINK-5455,1 55668U 23021AS  23091.85994212 -.00000314  00000-0 -84695-6 0  9991,2 55668  70.0015  28.7772 0003320 268.2062  91.8753 15.69921828  7610,6737.258,91.724,361.359,356.886,0.0
55668.0,STARLINK-5455,PAYLOAD,2023-04-02 05:48:49,15.699387,0.000292,70.002,27.7003,263.2945,96.7919,6.8514e-05,8.038e-05,0.0,0 STARLINK-5455,1 55668U 23021AS  23092.24223874  .00008038  00000-0  68514-4 0  9993,2 55668  70.0020  27.7003 0002920 263.2945  96.7919 15.69938700  7369,6737.209,91.723,361.042,357.107,0.0
55668.0,STARLINK-5455,PAYLOAD,2023-04-02 07:20:34,15.69943752,0.000332,70.0018,27.5214,269.1487,90.9328,0.00010762,0.00012758,0.0,0 STARLINK-5455,1 55668U 23021AS  23092.30595384  .00012758  00000-0  10762-3 0  9993,2 55668  70.0018  27.5214 0003320 269.1487  90.9328 15.69943752  7687,6737.195,91.723,361.297,356.823,0.0
55668.0,STARLINK-5455,PAYLOAD,2023-04-03 04:45:06,15.69927398,0.0003409,70.0023,25.0154,267.1227,92.9578,5.3747e-06,4.34e-06,0.0,0 STARLINK-5455,1 55668U 23021AS  23093.19798854  .00000434  00000-0  53747-5 0  9998,2 55668  70.0023  25.0154 0003409 267.1227  92.9578 15.69927398  7516,6737.242,91.724,361.403,356.81,0.0
55668.0,STARLINK-5455,PAYLOAD,2023-04-03 21:34:22,15.69926551,0.0003161,70.0022,23.0452,259.2903,100.7937,7.7109e-06,7.15e-06,0.0,0 STARLINK-5455,1 55668U 23021AS  23093.89887326  .00000715  00000-0  77109-5 0  9998,2 55668  70.0022  23.0452 0003161 259.2903 100.7937 15.69926551  7935,6737.244,91.724,361.239,356.979,0.0
55668.0,STARLINK-5455,PAYLOAD,2023-04-04 05:13:07,15.6993887,0.0003316,70.0028,22.1509,261.1379,98.9441,3.8667e-05,4.442e-05,0.0,0 STARLINK-5455,1 55668U 23021AS  23094.21745093  .00004442  00000-0  38667-4 0  9995,2 55668  70.0028  22.1509 0003316 261.1379  98.9441 15.69938870  7671,6737.209,91.723,361.308,356.84,0.0
55668.0,STARLINK-5455,PAYLOAD,2023-04-04 06:44:53,15.69930793,0.0002865,70.0017,21.9693,269.1289,90.9578,1.4358e-05,1.515e-05,0.0,0 STARLINK-5455,1 55668U 23021AS  23094.28117294  .00001515  00000-0  14358-4 0  9997,2 55668  70.0017  21.9693 0002865 269.1289  90.9578 15.69930793  7686,6737.232,91.724,361.027,357.167,0.0
55668.0,STARLINK-5455,PAYLOAD,2023-04-04 22:02:24,15.69925146,0.0002941,70.0033,20.1807,267.7698,92.3161,1.8536e-05,2.017e-05,0.0,0 STARLINK-5455,1 55668U 23021AS  23094.91834129  .00002017  00000-0  18536-4 0  9990,2 55668  70.0033  20.1807 0002941 267.7698  92.3161 15.69925146  8091,6737.248,91.724,361.095,357.132,0.0
55668.0,STARLINK-5455,PAYLOAD,2023-04-05 04:09:25,15.69913352,0.0002662,70.0032,19.4624,272.0511,88.038,8.5422e-05,0.00010066,0.0,0 STARLINK-5455,1 55668U 23021AS  23095.17321677  .00010066  00000-0  85422-4 0  9999,2 55668  70.0032  19.4624 0002662 272.0511  88.0380 15.69913352  7822,6737.282,91.725,360.94,357.353,0.0
55668.0,STARLINK-5455,PAYLOAD,2023-04-05 20:58:41,15.69921944,0.0003297,70.0033,17.4962,240.5414,119.5453,-6.395e-07,-2.89e-06,0.0,0 STARLINK-5455,1 55668U 23021AS  23095.87409271 -.00000289  00000-0 -63950-6 0  9995,2 55668  70.0033  17.4962 0003297 240.5414 119.5453 15.69921944  8247,6737.257,91.724,361.344,356.901,0.0
55668.0,STARLINK-5455,PAYLOAD,2023-04-06 06:09:12,15.69931417,0.000321,70.0023,16.4177,260.0268,100.0565,2.4453e-05,2.729e-05,0.0,0 STARLINK-5455,1 55668U 23021AS  23096.25638999  .00002729  00000-0  24453-4 0  9991,2 55668  70.0023  16.4177 0003210 260.0268 100.0565 15.69931417  7998,6737.23,91.724,361.258,356.933,0.0
55668.0,STARLINK-5455,PAYLOAD,2023-04-07 05:05:29,15.69925606,0.0003135,70.0021,13.7304,265.9721,94.1116,1.0485e-05,1.048e-05,0.0,0 STARLINK-5455,1 55668U 23021AS  23097.21214304  .00001048  00000-0  10485-4 0  9991,2 55668  70.0021  13.7304 0003135 265.9721  94.1116 15.69925606  8148,6737.247,91.724,361.224,357.0,0.0
55668.0,STARLINK-5455,PAYLOAD,2023-04-08 13:12:16,15.6992214,0.0003026,70.0007,9.9706,260.1221,99.9633,-1.4312e-06,-3.85e-06,0.0,0 STARLINK-5455,1 55668U 23021AS  23098.55019575 -.00000385  00000-0 -14312-5 0  9991,2 55668  70.0007   9.9706 0003026 260.1221  99.9633 15.69922140  8356,6737.257,91.724,361.16,357.083,0.0
55668.0,STARLINK-5455,PAYLOAD,2023-04-09 01:26:18,15.69921795,0.0003026,70.0022,8.5371,264.1343,95.9508,3.0457e-05,3.451e-05,0.0,0 STARLINK-5455,1 55668U 23021AS  23099.05993064  .00003451  00000-0  30457-4 0  9993,2 55668  70.0022   8.5371 0003026 264.1343  95.9508 15.69921795  8740,6737.258,91.724,361.161,357.084,0.0
55668.0,STARLINK-5455,PAYLOAD,2023-04-09 21:19:04,15.69925937,0.0003336,70.0024,6.2086,259.3846,100.6974,-1.2543e-06,-3.63e-06,0.0,0 STARLINK-5455,1 55668U 23021AS  23099.88824656 -.00000363  00000-0 -12543-5 0  9992,2 55668  70.0024   6.2086 0003336 259.3846 100.6974 15.69925937  8875,6737.246,91.724,361.358,356.863,0.0
55668.0,STARLINK-5455,PAYLOAD,2023-04-10 00:22:34,15.69927865,0.0003942,70.0023,5.8524,261.1941,98.8808,9.9722e-06,9.87e-06,0.0,0 STARLINK-5455,1 55668U 23021AS  23100.01567876  .00000987  00000-0  99722-5 0  9992,2 55668  70.0023   5.8524 0003942 261.1941  98.8808 15.69927865  8580,6737.24,91.724,361.761,356.45,0.0
55668.0,STARLINK-5455,PAYLOAD,2023-04-10 03:26:05,15.699157,0.0002779,70.0025,5.4928,255.3403,104.7485,-1.8581e-05,-2.445e-05,0.0,0 STARLINK-5455,1 55668U 23021AS  23100.14311869 -.00002445  00000-0 -18581-4 0  9991,2 55668  70.0025   5.4928 0002779 255.3403 104.7485 15.69915700  8607,6737.275,91.725,361.012,357.268,0.0
55668.0,STARLINK-5455,PAYLOAD,2023-04-10 20:15:21,15.69933478,0.0002959,70.0018,3.5218,239.577,120.5134,2.6874e-05,3.021e-05,0.0,0 STARLINK-5455,1 55668U 23021AS  23100.84399354  .00003021  00000-0  26874-4 0  9996,2 55668  70.0018   3.5218 0002959 239.5770 120.5134 15.69933478  8712,6737.224,91.724,361.083,357.096,0.0
55668.0,STARLINK-5455,PAYLOAD,2023-04-11 03:54:08,15.69901436,0.0002475,70.0024,2.6259,259.0293,101.0625,-3.4756e-05,-4.384e-05,0.0,0 STARLINK-5455,1 55668U 23021AS  23101.16259422 -.00004384  00000-0 -34756-4 0  9996,2 55668  70.0024   2.6259 0002475 259.0293 101.0625 15.69901436  8767,6737.316,91.726,360.848,357.514,0.0
55668.0,STARLINK-5455,PAYLOAD,2023-04-11 20:43:23,15.69930207,0.0003548,70.0008,0.6544,265.2078,94.8712,-2.6428e-05,-3.39e-05,0.0,0 STARLINK-5455,1 55668U 23021AS  23101.86346297 -.00003390  00000-0 -26428-4 0  9993,2 55668  70.0008   0.6544 0003548 265.2078  94.8712 15.69930207  9187,6737.234,91.724,361.489,356.708,0.0
55668.0,STARLINK-5455,PAYLOAD,2023-04-12 02:50:25,15.69899208,0.0002716,70.0019,359.9386,273.8824,86.2061,-3.2433e-05,-4.106e-05,0.0,0 STARLINK-5455,1 55668U 23021AS  23102.11834647 -.00004106  00000-0 -32433-4 0  9992,2 55668  70.0019 359.9386 0002716 273.8824  86.2061 15.69899208  8910,6737.322,91.726,361.017,357.358,0.0
55668.0,STARLINK-5455,PAYLOAD,2023-04-13 03:18:25,15.69929258,0.0002705,70.0035,357.0723,273.023,87.0656,1.3548e-05,1.417e-05,0.0,0 STARLINK-5455,1 55668U 23021AS  23103.13780021  .00001417  00000-0  13548-4 0  9997,2 55668  70.0035 357.0723 0002705 273.0230  87.0656 15.69929258  9383,6737.236,91.724,360.924,357.279,0.0
55668.0,STARLINK-5455,PAYLOAD,2023-04-13 20:07:42,15.69929557,0.0003721,69.9993,355.099,270.3178,89.7592,-5.4712e-06,-8.71e-06,0.0,0 STARLINK-5455,1 55668U 23021AS  23103.83868143 -.00000871  00000-0 -54712-5 0  9990,2 55668  69.9993 355.0990 0003721 270.3178  89.7592 15.69929557  9185,6737.236,91.724,361.607,356.594,0.0
55668.0,STARLINK-5455,PAYLOAD,2023-04-14 02:14:43,15.6990812,0.0003507,70.0001,354.3838,275.6243,84.4552,-4.4875e-05,-5.602e-05,0.0,0 STARLINK-5455,1 55668U 23021AS  23104.09355735 -.00005602  00000-0 -44875-4 0  9992,2 55668  70.0001 354.3838 0003507 275.6243  84.4552 15.69908120  9220,6737.297,91.725,361.525,356.799,0.0
55668.0,STARLINK-5455,PAYLOAD,2023-04-14 12:56:58,15.69919238,0.0003697,69.9988,353.1299,277.5744,82.5032,4.2757e-06,3.01e-06,0.0,0 STARLINK-5455,1 55668U 23021AS  23104.53957127  .00000301  00000-0  42757-5 0  9991,2 55668  69.9988 353.1299 0003697 277.5744  82.5032 15.69919238  9602,6737.265,91.724,361.621,356.639,0.0
55668.0,STARLINK-5455,PAYLOAD,2023-04-14 14:28:43,15.69918808,0.0003828,69.9999,352.9509,271.2197,88.856,1.7285e-06,-5e-08,0.0,0 STARLINK-5455,1 55668U 23021AS  23104.60328692 -.00000005  00000-0  17285-5 0  9998,2 55668  69.9999 352.9509 0003828 271.2197  88.8560 15.69918808  9308,6737.266,91.724,361.71,356.552,0.0
55668.0,STARLINK-5455,PAYLOAD,2023-04-15 02:42:45,15.69908284,0.0003489,70.0001,351.5179,272.2547,87.8249,-1.7066e-05,-2.263e-05,0.0,0 STARLINK-5455,1 55668U 23021AS  23105.11302380 -.00002263  00000-0 -17066-4 0  9996,2 55668  70.0001 351.5179 0003489 272.2547  87.8249 15.69908284  9384,6737.296,91.725,361.512,356.811,0.0
55668.0,STARLINK-5455,PAYLOAD,2023-04-15 19:32:00,15.69939631,0.0004073,70.0007,349.5477,277.9977,82.0756,1.4495e-05,1.531e-05,0.0,0 STARLINK-5455,1 55668U 23021AS  23105.81389807  .00001531  00000-0  14495-4 0  9990,2 55668  70.0007 349.5477 0004073 277.9977  82.0756 15.69939631  9499,6737.207,91.723,361.816,356.328,0.0
